[{"OBJECT_NAME":"OBJECT J","OBJECT_ID":"2023-085J","EPOCH":"2026-03-09T22:47:59.920512","MEAN_MOTION":15.31507187,"ECCENTRICITY":0.00067028,"INCLINATION":97.4828,"RA_OF_ASC_NODE":180.1819,"ARG_OF_PERICENTER":41.7877,"MEAN_ANOMALY":318.3875,"EPHEMERIS_TYPE":0,"CLASSIFICATION_TYPE":"U","NORAD_CAT_ID":57012,"ELEMENT_SET_NO":999,"REV_AT_EPOCH":15156,"BSTAR":0.00064525349,"MEAN_MOTION_DOT":0.00019595,"MEAN_MOTION_DDOT":0},{"OBJECT_NAME":"STARLINK-33682","OBJECT_ID":"2025-069A","EPOCH":"2026-03-09T11:46:47.350848","MEAN_MOTION":15.30201384,"ECCENTRICITY":0.00012279,"INCLINATION":53.1574,"RA_OF_ASC_NODE":143.4505,"ARG_OF_PERICENTER":74.1805,"MEAN_ANOMALY":285.9331,"EPHEMERIS_TYPE":0,"CLASSIFICATION_TYPE":"U","NORAD_CAT_ID":63433,"ELEMENT_SET_NO":999,"REV_AT_EPOCH":5337,"BSTAR":0.00092580896,"MEAN_MOTION_DOT":0.00027162,"MEAN_MOTION_DDOT":0}]
